OSCAR 7 (AO-7)          
1 07530U 74089B   18095.48525535 -.00000034  00000-0  62811-4 0  9993
2 07530 101.6793  63.9190 0012431 114.9499 355.9194 12.53631823985259
UOSAT 2 (UO-11)         
1 14781U 84021B   18095.53514519  .00000052  00000-0  12582-4 0  9991
2 14781  97.6582 134.8153 0007588 330.6045  29.4742 14.82992309812673
LUSAT (LO-19)           
1 20442U 90005G   18095.80014485  .00000022  00000-0  24194-4 0  9997
2 20442  98.6048  34.7591 0011983   9.6593 350.4819 14.32891414473520
ITAMSAT (IO-26)         
1 22826U 93061D   18095.41739555  .00000005  00000-0  19459-4 0  9998
2 22826  98.8500  70.2890 0008788 181.7907 178.3245 14.30357203279356
RADIO ROSTO (RS-15)     
1 23439U 94085A   18095.44666056 -.00000052  00000-0 -25790-3 0  9992
2 23439  64.8140 106.4750 0159708 195.2529 316.1700 11.27566865958526
JAS-2 (FO-29)           
1 24278U 96046B   18095.54128885 -.00000052  00000-0 -13833-4 0  9993
2 24278  98.5239 304.2802 0349491 299.5101  57.1609 13.53082557 68165
TECHSAT 1B (GO-32)      
1 25397U 98043D   18095.78159693 -.00000007  00000-0  16054-4 0  9999
2 25397  98.6440  37.4422 0000764 168.6742 191.4454 14.23642725 25429
ISS (ZARYA)             
1 25544U 98067A   18096.14378542  .00002236  00000-0  40882-4 0  9997
2 25544  51.6441  17.8635 0001462 307.3796 192.7392 15.54201904107317
PCSAT (NO-44)           
1 26931U 01043C   18095.64196275 -.00000038  00000-0  17137-4 0  9997
2 26931  67.0518  56.5963 0006883 282.7275  77.3057 14.30499462862177
SAUDISAT 1C (SO-50)     
1 27607U 02058C   18095.07790378 -.00000005  00000-0  20022-4 0  9997
2 27607  64.5552 313.5030 0056820 345.3013  14.6434 14.75435635822047
CUTE-1 (CO-55)          
1 27844U 03031E   18095.48981241  .00000039  00000-0  37530-4 0  9996
2 27844  98.6891 105.2121 0009064 216.3371 143.7192 14.22103701765828
CUBESAT XI-IV (CO-57)   
1 27848U 03031J   18095.49930892  .00000028  00000-0  32543-4 0  9994
2 27848  98.6979 105.5947 0008814 227.2794 132.7642 14.21708928765706
MOZHAYETS 4 (RS-22)     
1 27939U 03042A   18095.87758464  .00000086  00000-0  23917-4 0  9991
2 27939  97.9781 236.9285 0013367  23.8865 127.2237 14.66671495776216
CUBESAT XI-V (CO-58)    
1 28895U 05043F   18095.66897515  .00000127  00000-0  33262-4 0  9994
2 28895  97.8982 250.1045 0015543 300.9129  59.0545 14.63526456663269
CUTE-1.7+APD II (CO-65) 
1 32785U 08021C   18095.49477601  .00000205  00000-0  27944-4 0  9994
2 32785  97.5511 111.1312 0011515 280.8822  79.1099 14.88088843538292
DELFI-C3 (DO-64)        
1 32789U 08021G   18095.22352093  .00001457  00000-0  10435-3 0  9992
2 32789  97.5205 151.8599 0012736 179.4407 180.6836 15.05880282540705
SEEDS II (CO-66)        
1 32791U 08021J   18095.83592582  .00000196  00000-0  25468-4 0  9993
2 32791  97.5415 116.6475 0011822 257.9325 102.0569 14.90505515538736
YUBILEINY (RS-30)       
1 32953U 08025A   18095.84480923  .00000028  00000-0  13048-3 0  9997
2 32953  82.5033  57.6619 0019624  11.3273 348.8244 12.43082552447783
KKS-1 (KISEKI)          
1 33499U 09002H   18095.81248531  .00000094  00000-0  21985-4 0  9996
2 33499  98.3536 275.2374 0009710 156.1139 204.0522 14.75310584494502
SWISSCUBE               
1 35932U 09051B   18095.46190768  .00000148  00000-0  44569-4 0  9996
2 35932  98.5339 244.9183 0008809  77.1349 283.0832 14.56138616452815
BEESAT                  
1 35933U 09051C   18095.35694044  .00000114  00000-0  36789-4 0  9999
2 35933  98.5380 246.3119 0007094  89.0934 271.1076 14.56244904452944
ITUPSAT 1               
1 35935U 09051E   18095.37062025  .00000113  00000-0  37000-4 0  9997
2 35935  98.5491 246.5796 0009370  84.0821 276.1443 14.55424453452739
XIWANG-1 (HOPE-1)       
1 36122U 09072B   18095.50372270 -.00000073  00000-0 -80131-4 0  9990
2 36122 100.0806 113.5254 0006783 281.4280  78.6072 13.16344006398986
JUGNU                   
1 37839U 11058B   18095.31182979  .00000322  00000-0  29625-4 0  9993
2 37839  19.9608 119.1479 0018989 162.7765 297.7004 14.12614696334948
SRMSAT                  
1 37841U 11058D   18095.51434036  .00000293  00000-0  15748-4 0  9990
2 37841  19.9711 165.6256 0012076  52.8225  73.4160 14.10602471334517
M-CUBED & EXP-1 PRIME   
1 37855U 11061F   18095.51064920  .00000719  00000-0  45152-4 0  9995
2 37855 101.7242 120.8563 0176876 297.3242  61.0059 15.04239275350250
STRAND-1                
1 39090U 13009E   18095.52583827  .00000010  00000-0  18729-4 0  9999
2 39090  98.5291 302.8270 0009784 147.0325 213.1472 14.35017839267386
SOMP                    
1 39134U 13015E   18095.19010925  .00001071  00000-0  60401-4 0  9994
2 39134  64.8652   3.0069 0020734 219.3213 140.6409 15.18960662273435
BEESAT-3                
1 39135U 13015F   18095.15906932  .00000814  00000-0  51418-4 0  9995
2 39135  64.8709  15.5221 0026380 245.7402 114.0967 15.16516623273574
BEESAT-2                
1 39136U 13015G   18095.16925079  .00000739  00000-0  48250-4 0  9996
2 39136  64.8712  18.0793 0026876 244.8478 114.9860 15.15990643273527
ZACUBE-1 (TSHEPISOSAT)  
1 39417U 13066B   18095.54509547  .00000200  00000-0  31631-4 0  9992
2 39417  97.5949 128.0338 0059933  34.4876 326.0203 14.80902403236047
GOMX 1                  
1 39430U 13066Q   18095.88503875  .00000171  00000-0  40064-4 0  9999
2 39430  97.6920  77.9951 0151057 198.2778 161.2960 14.59047592232618
EAGLE 2                 
1 39436U 13066W   18095.29513532  .00185437  00000-0  14949-2 0  9991
2 39436  97.7128 226.1733 0001366 241.2280 118.8844 15.70324337240724
CUBEBUG-2 (LO-74)       
1 39440U 13066AA  18095.51867374  .00000208  00000-0  35894-4 0  9993
2 39440  97.6062 115.0554 0082033  71.9658 289.0469 14.75636776234004
FUNCUBE-1 (AO-73)       
1 39444U 13066AE  18095.30883920  .00000252  00000-0  37496-4 0  9998
2 39444  97.5960 129.2428 0059008  31.0136 329.4540 14.81671915234274
UWE-3                   
1 39446U 13066AG  18095.86889141  .00000208  00000-0  34249-4 0  9996
2 39446  97.5992 121.4888 0071459  52.5141 308.2540 14.78170850234434
SPROUT                  
1 39770U 14029E   18095.84293179  .00000429  00000-0  54332-4 0  9994
2 39770  97.8727 197.5160 0010828  87.5211 272.7257 14.86747132209613
UNISAT-6                
1 40012U 14033C   18095.22972207  .00000208  00000-0  38465-4 0  9992
2 40012  97.8190 334.1617 0059936  74.6419 286.1402 14.73787012203953
DUCHIFAT-1              
1 40021U 14033M   18095.34305856  .00000359  00000-0  42814-4 0  9995
2 40021  97.9170  13.9302 0014379  61.4542 298.8121 14.90244436206103
FUNCUBE-3 (EO-79)       
1 40025U 14033R   18095.55624155  .00000278  00000-0  35794-4 0  9997
2 40025  97.9074  11.0973 0013918  66.5424 293.7254 14.88669462205473
NUDT-PHONESAT           
1 40900U 15049B   18095.81490172  .00001930  00000-0  90046-4 0  9993
2 40900  97.4433 104.9119 0011783 284.8280  75.1650 15.21006003140919
ZDPS 2A                 
1 40901U 15049C   18095.85104893  .00000851  00000-0  46464-4 0  9996
2 40901  97.4603 103.3304 0012142 292.0946  67.8997 15.16954575140695
ZDPS 2B                 
1 40902U 15049D   18095.81502345  .00000745  00000-0  41350-4 0  9998
2 40902  97.4499 101.4372 0012175 288.9377  71.0536 15.16753861140670
XW-2A                   
1 40903U 15049E   18095.80899316  .00001666  00000-0  43532-4 0  9992
2 40903  97.3926 129.9242 0012642 294.5046  65.4882 15.40205272142668
KAITUO 1A               
1 40904U 15049F   18095.82621590  .00000499  00000-0  30282-4 0  9993
2 40904  97.4591 100.7636 0013253 292.9186 190.3821 15.14943456140548
2015-049G               
1 40905U 15049G   18095.84194158  .00000371  00000-0  24064-4 0  9991
2 40905  97.4591  98.9759 0014202 282.6016  77.3627 15.13907009140479
XW-2C                   
1 40906U 15049H   18095.80399184  .00000615  00000-0  36325-4 0  9998
2 40906  97.4607 100.6263 0013412 282.4535  77.5196 15.15090503140539
XW-2D                   
1 40907U 15049J   18095.82952545  .00000653  00000-0  38222-4 0  9997
2 40907  97.4580 100.3572 0012756 279.9718  80.0075 15.15234205140549
LILACSAT 2              
1 40908U 15049K   18095.81582891  .00000345  00000-0  22909-4 0  9993
2 40908  97.4690  99.7948 0014420 281.0579  78.9031 15.13451251140424
XW-2F                   
1 40910U 15049M   18095.83390207  .00000958  00000-0  52715-4 0  9994
2 40910  97.4585 101.5462 0013445 275.4562  84.5137 15.16376557140482
XW-2B                   
1 40911U 15049N   18095.84441563  .00000640  00000-0  37580-4 0  9999
2 40911  97.4617 100.8819 0012673 280.5201  79.4603 15.15180751140441
KAITUO 1B               
1 40912U 15049P   18095.81393781  .00001115  00000-0  57144-4 0  9991
2 40912  97.4515 104.1697 0013543 263.7203 220.6662 15.18574490140683
TIANWANG 1C (TW-1C)     
1 40926U 15051B   18095.89933249  .00006757  00000-0  13163-3 0  9995
2 40926  97.1915 138.6048 0010339 169.2893 315.9180 15.47817506142120
TIANWANG 1A (TW-1A)     
1 40928U 15051D   18095.88773324  .00002557  00000-0  69813-4 0  9990
2 40928  97.1932 131.2926 0010595 215.1088 269.6091 15.38282136141665
LAPAN-A2 (IO-86)        
1 40931U 15052B   18095.04249873  .00000677  00000-0  53034-5 0  9990
2 40931   6.0019 311.6530 0012833  51.9206 308.2106 14.76570545136176
E-ST@R-II               
1 41459U 16025D   18095.80767788  .00001544  00000-0  84345-4 0  9993
2 41459  98.1440 154.6384 0172820  31.6351 329.5100 15.04193876106541
AAUSAT 4                
1 41460U 16025E   18095.72007566  .00001370  00000-0  74920-4 0  9992
2 41460  98.1372 154.9367 0163587  28.3306 332.6690 15.05531354106585
NUSAT 1 (LO-87)         
1 41557U 16033B   18095.68365765  .00001293  00000-0  49759-4 0  9997
2 41557  97.4380 180.0340 0015170  58.2496 302.0220 15.28146467103084
BEESAT-4                
1 41619U 16040W   18095.22427890  .00001472  00000-0  67632-4 0  9991
2 41619  97.4226 159.3614 0013190 122.5199 237.7314 15.21894924 86999
ALSAT 1N                
1 41789U 16059G   18095.85946550  .00000078  00000-0  24060-4 0  9996
2 41789  98.1258 159.6362 0027260 317.3170  42.5900 14.64139374 81433
CAS-2T & KS-1Q          
1 41847U 16066G   18095.53416961  .00000187  00000-0  37843-4 0  9996
2 41847  98.7564 122.8826 0366883 100.2644 264.0116 14.37874742 73888
NAYIF-1 (EO-88)         
1 42017U 17008BX  18095.75577910  .00001354  00000-0  58533-4 0  9995
2 42017  97.4552 161.2274 0004784 275.2840  84.7852 15.24196411 63032
LILACSAT-1              
1 42725U 98067ME  18095.82510594  .00021071  00000-0  20692-3 0  9990
2 42725  51.6377   6.2594 0003219 328.2790  31.8011 15.65995562 49160
MAX VALIER SAT          
1 42778U 17036P   18095.82441058  .00000875  00000-0  42348-4 0  9995
2 42778  97.4113 156.7147 0011620 329.9695  30.0873 15.21140994 43508
FOX-1B (AO-91)          
1 43017U 17073E   18095.36915245  .00000448  00000-0  40423-4 0  9994
2 43017  97.7036  29.5606 0260850 148.3801 213.3385 14.77961399 20354
FOX-1D (AO-92)          
1 43137U 18004AC  18095.61133739  .00000945  00000-0  43809-4 0  9993
2 43137  97.5414 158.0897 0009497   4.8525 355.2801 15.22540134 12667
